{"type": "FeatureCollection", "features": [ {"type": "Feature", "properties": {"norad_id": 39574, "name": "GPM-CORE", "group": "resource", "lat": 60.10277658621821, "lon": -32.40998166492771, "alt_km": 430.9370298615604, "timestamp": "2025-12-15T22:44:28.580432+00:00", "meta": {"OBJECT_NAME": "GPM-CORE", "OBJECT_ID": "2014-009C", "EPOCH": "2025-12-15T06:44:22.781472", "MEAN_MOTION": 15.44507595, "ECCENTRICITY": 0.00096868, "INCLINATION": 64.9732, "RA_OF_ASC_NODE": 204.1717, "ARG_OF_PERICENTER": 246.1046, "MEAN_ANOMALY": 113.908, "EPHEMERIS_TYPE": 0, "CLASSIFICATION_TYPE": "U", "NORAD_CAT_ID": 39574, "ELEMENT_SET_NO": 999, "REV_AT_EPOCH": 66940, "BSTAR": 0.00012997454, "MEAN_MOTION_DOT": 5.815e-05, "MEAN_MOTION_DDOT": 0}, "tle": {"line1": "1 39574U 14009C   25349.28081923  .00005815  00000+0  12997-3 0  9997", "line2": "2 39574  64.9732 204.1717 0009686 246.1046 113.9080 15.44507595669407"}}, "geometry": {"type": "Point", "coordinates": [-32.40998166492771, 60.10277658621821]}}, {"type": "Feature", "properties": {"norad_id": 39634, "name": "SENTINEL-1A", "group": "resource", "lat": 44.32772681329936, "lon": -12.935661653681267, "alt_km": 691.2963496937009, "timestamp": "2025-12-15T22:44:28.580442+00:00", "meta": {"OBJECT_NAME": "SENTINEL-1A", "OBJECT_ID": "2014-016A", "EPOCH": "2025-12-15T07:43:29.237952", "MEAN_MOTION": 14.5920042, "ECCENTRICITY": 0.00012473, "INCLINATION": 98.1807, "RA_OF_ASC_NODE": 354.5256, "ARG_OF_PERICENTER": 84.557, "MEAN_ANOMALY": 275.5772, "EPHEMERIS_TYPE": 0, "CLASSIFICATION_TYPE": "U", "NORAD_CAT_ID": 39634, "ELEMENT_SET_NO": 999, "REV_AT_EPOCH": 62320, "BSTAR": 7.4026279e-05, "MEAN_MOTION_DOT": 3.03e-06, "MEAN_MOTION_DDOT": 0}, "tle": {"line1": "1 39634U 14016A   25349.32186618  .00000303  00000+0  74026-4 0  9993", "line2": "2 39634  98.1807 354.5256 0001247  84.5570 275.5772 14.59200420623208"}}, "geometry": {"type": "Point", "coordinates": [-12.935661653681267, 44.32772681329936]}}, {"type": "Feature", "properties": {"norad_id": 39731, "name": "KAZEOSAT 1", "group": "resource", "lat": -2.0470835729578276, "lon": -118.51793889212637, "alt_km": 754.857951083457, "timestamp": "2025-12-15T22:44:28.580453+00:00", "meta": {"OBJECT_NAME": "KAZEOSAT 1", "OBJECT_ID": "2014-024A", "EPOCH": "2025-12-15T08:34:41.934720", "MEAN_MOTION": 14.42064626, "ECCENTRICITY": 0.00011424, "INCLINATION": 98.3431, "RA_OF_ASC_NODE": 61.2058, "ARG_OF_PERICENTER": 96.9226, "MEAN_ANOMALY": 263.2094, "EPHEMERIS_TYPE": 0, "CLASSIFICATION_TYPE": "U", "NORAD_CAT_ID": 39731, "ELEMENT_SET_NO": 999, "REV_AT_EPOCH": 61206, "BSTAR": 9.2483245e-05, "MEAN_MOTION_DOT": 2.61e-06, "MEAN_MOTION_DDOT": 0}, "tle": {"line1": "1 39731U 14024A   25349.35742980  .00000261  00000+0  92483-4 0  9993", "line2": "2 39731  98.3431  61.2058 0001142  96.9226 263.2094 14.42064626612063"}}, "geometry": {"type": "Point", "coordinates": [-118.51793889212637, -2.0470835729578276]}}, {"type": "Feature", "properties": {"norad_id": 39766, "name": "ALOS-2", "group": "resource", "lat": 42.15391467825566, "lon": -88.00934859344174, "alt_km": 626.7982664480096, "timestamp": "2025-12-15T22:44:28.580464+00:00", "meta": {"OBJECT_NAME": "ALOS-2", "OBJECT_ID": "2014-029A", "EPOCH": "2025-12-15T10:45:38.494080", "MEAN_MOTION": 14.7946645, "ECCENTRICITY": 0.0001396, "INCLINATION": 97.9228, "RA_OF_ASC_NODE": 84.2561, "ARG_OF_PERICENTER": 102.692, "MEAN_ANOMALY": 257.4448, "EPHEMERIS_TYPE": 0, "CLASSIFICATION_TYPE": "U", "NORAD_CAT_ID": 39766, "ELEMENT_SET_NO": 999, "REV_AT_EPOCH": 62441, "BSTAR": 0.00030229, "MEAN_MOTION_DOT": 2.206e-05, "MEAN_MOTION_DDOT": 0}, "tle": {"line1": "1 39766U 14029A   25349.44836220  .00002206  00000+0  30229-3 0  9997", "line2": "2 39766  97.9228  84.2561 0001396 102.6920 257.4448 14.79466450624412"}}, "geometry": {"type": "Point", "coordinates": [-88.00934859344174, 42.15391467825566]}}, {"type": "Feature", "properties": {"norad_id": 40010, "name": "KAZEOSAT 2", "group": "resource", "lat": 65.81434263358834, "lon": 31.274318497910556, "alt_km": 605.912756430137, "timestamp": "2025-12-15T22:44:28.580474+00:00", "meta": {"OBJECT_NAME": "KAZEOSAT 2", "OBJECT_ID": "2014-033A", "EPOCH": "2025-12-15T07:40:51.608928", "MEAN_MOTION": 14.85172402, "ECCENTRICITY": 0.00078833, "INCLINATION": 97.5508, "RA_OF_ASC_NODE": 193.5012, "ARG_OF_PERICENTER": 197.5501, "MEAN_ANOMALY": 162.5444, "EPHEMERIS_TYPE": 0, "CLASSIFICATION_TYPE": "U", "NORAD_CAT_ID": 40010, "ELEMENT_SET_NO": 999, "REV_AT_EPOCH": 62166, "BSTAR": 0.00010393243, "MEAN_MOTION_DOT": 8.4e-06, "MEAN_MOTION_DDOT": 0}, "tle": {"line1": "1 40010U 14033A   25349.32004177  .00000840  00000+0  10393-3 0  9993", "line2": "2 40010  97.5508 193.5012 0007883 197.5501 162.5444 14.85172402621667"}}, "geometry": {"type": "Point", "coordinates": [31.274318497910556, 65.81434263358834]}}, {"type": "Feature", "properties": {"norad_id": 40011, "name": "HODOYOSHI-4", "group": "resource", "lat": -47.30198243853778, "lon": -9.582110639465224, "alt_km": 599.7970584219847, "timestamp": "2025-12-15T22:44:28.580484+00:00", "meta": {"OBJECT_NAME": "HODOYOSHI-4", "OBJECT_ID": "2014-033B", "EPOCH": "2025-12-15T08:48:19.213920", "MEAN_MOTION": 14.87495593, "ECCENTRICITY": 0.00233053, "INCLINATION": 97.5418, "RA_OF_ASC_NODE": 178.1212, "ARG_OF_PERICENTER": 191.4423, "MEAN_ANOMALY": 168.6267, "EPHEMERIS_TYPE": 0, "CLASSIFICATION_TYPE": "U", "NORAD_CAT_ID": 40011, "ELEMENT_SET_NO": 999, "REV_AT_EPOCH": 62147, "BSTAR": 0.00024203553, "MEAN_MOTION_DOT": 2.152e-05, "MEAN_MOTION_DDOT": 0}, "tle": {"line1": "1 40011U 14033B   25349.36688905  .00002152  00000+0  24204-3 0  9999", "line2": "2 40011  97.5418 178.1212 0023305 191.4423 168.6267 14.87495593621472"}}, "geometry": {"type": "Point", "coordinates": [-9.582110639465224, -47.30198243853778]}}, {"type": "Feature", "properties": {"norad_id": 40013, "name": "DEIMOS-2", "group": "resource", "lat": 82.16678428143915, "lon": 149.39400424135732, "alt_km": 580.5204024201666, "timestamp": "2025-12-15T22:44:28.580495+00:00", "meta": {"OBJECT_NAME": "DEIMOS-2", "OBJECT_ID": "2014-033D", "EPOCH": "2025-12-15T07:52:16.874976", "MEAN_MOTION": 14.92983976, "ECCENTRICITY": 9.908e-05, "INCLINATION": 97.6062, "RA_OF_ASC_NODE": 225.0425, "ARG_OF_PERICENTER": 110.4253, "MEAN_ANOMALY": 249.7073, "EPHEMERIS_TYPE": 0, "CLASSIFICATION_TYPE": "U", "NORAD_CAT_ID": 40013, "ELEMENT_SET_NO": 999, "REV_AT_EPOCH": 61028, "BSTAR": 0.00019793248, "MEAN_MOTION_DOT": 2.002e-05, "MEAN_MOTION_DDOT": 0}, "tle": {"line1": "1 40013U 14033D   25349.32797309  .00002002  00000+0  19793-3 0  9997", "line2": "2 40013  97.6062 225.0425 0000990 110.4253 249.7073 14.92983976610281"}}, "geometry": {"type": "Point", "coordinates": [149.39400424135732, 82.16678428143915]}}, {"type": "Feature", "properties": {"norad_id": 40015, "name": "HODOYOSHI-3", "group": "resource", "lat": 57.33046016471637, "lon": -12.307299687995387, "alt_km": 618.1220694313015, "timestamp": "2025-12-15T22:44:28.580506+00:00", "meta": {"OBJECT_NAME": "HODOYOSHI-3", "OBJECT_ID": "2014-033F", "EPOCH": "2025-12-15T07:38:07.719360", "MEAN_MOTION": 14.84816619, "ECCENTRICITY": 0.00319655, "INCLINATION": 97.6196, "RA_OF_ASC_NODE": 155.041, "ARG_OF_PERICENTER": 239.0645, "MEAN_ANOMALY": 120.7428, "EPHEMERIS_TYPE": 0, "CLASSIFICATION_TYPE": "U", "NORAD_CAT_ID": 40015, "ELEMENT_SET_NO": 999, "REV_AT_EPOCH": 62033, "BSTAR": 0.0001648663, "MEAN_MOTION_DOT": 1.36e-05, "MEAN_MOTION_DDOT": 0}, "tle": {"line1": "1 40015U 14033F   25349.31814490  .00001360  00000+0  16487-3 0  9992", "line2": "2 40015  97.6196 155.0410 0031965 239.0645 120.7428 14.84816619620335"}}, "geometry": {"type": "Point", "coordinates": [-12.307299687995387, 57.33046016471637]}}, {"type": "Feature", "properties": {"norad_id": 40053, "name": "SPOT 7", "group": "resource", "lat": -70.94341067202019, "lon": 76.2668111769593, "alt_km": 699.1046047244099, "timestamp": "2025-12-15T22:44:28.580517+00:00", "meta": {"OBJECT_NAME": "SPOT 7", "OBJECT_ID": "2014-034A", "EPOCH": "2025-12-15T08:16:40.071936", "MEAN_MOTION": 14.607386, "ECCENTRICITY": 0.00015737, "INCLINATION": 98.0906, "RA_OF_ASC_NODE": 51.3604, "ARG_OF_PERICENTER": 87.3351, "MEAN_ANOMALY": 272.803, "EPHEMERIS_TYPE": 0, "CLASSIFICATION_TYPE": "U", "NORAD_CAT_ID": 40053, "ELEMENT_SET_NO": 999, "REV_AT_EPOCH": 61029, "BSTAR": 0.00015213681, "MEAN_MOTION_DOT": 6.96e-06, "MEAN_MOTION_DDOT": 0}, "tle": {"line1": "1 40053U 14034A   25349.34490824  .00000696  00000+0  15214-3 0  9997", "line2": "2 40053  98.0906  51.3604 0001573  87.3351 272.8030 14.60738600610293"}}, "geometry": {"type": "Point", "coordinates": [76.2668111769593, -70.94341067202019]}}, {"type": "Feature", "properties": {"norad_id": 40072, "name": "SKYSAT-B", "group": "resource", "lat": 10.592020032236068, "lon": 115.39886308704779, "alt_km": 603.8926484745771, "timestamp": "2025-12-15T22:44:28.580527+00:00", "meta": {"OBJECT_NAME": "SKYSAT-B", "OBJECT_ID": "2014-037D", "EPOCH": "2025-12-15T07:27:07.336512", "MEAN_MOTION": 14.8733752, "ECCENTRICITY": 0.00063537, "INCLINATION": 98.3609, "RA_OF_ASC_NODE": 293.1523, "ARG_OF_PERICENTER": 142.589, "MEAN_ANOMALY": 217.5768, "EPHEMERIS_TYPE": 0, "CLASSIFICATION_TYPE": "U", "NORAD_CAT_ID": 40072, "ELEMENT_SET_NO": 999, "REV_AT_EPOCH": 61862, "BSTAR": 0.00016645187, "MEAN_MOTION_DOT": 1.442e-05, "MEAN_MOTION_DDOT": 0}, "tle": {"line1": "1 40072U 14037D   25349.31050158  .00001442  00000+0  16645-3 0  9999", "line2": "2 40072  98.3609 293.1523 0006353 142.5890 217.5768 14.87337520618620"}}, "geometry": {"type": "Point", "coordinates": [115.39886308704779, 10.592020032236068]}}]}